{
  "type": "FeatureCollection",
  "features": [
    {
      "type": "Feature",
      "properties": {
        "norad_id": 40128,
        "name": "GSAT0201 (GALILEO 5)",
        "group": "gnss",
        "lat": 17.91685846958678,
        "lon": 85.00719495328292,
        "alt_km": 17111.897935780846,
        "timestamp": "2025-12-07T05:38:10.147154+00:00",
        "meta_object_name": "GSAT0201 (GALILEO 5)",
        "meta_object_id": "2014-050A",
        "meta_epoch": "2025-12-03T05:25:23.717280",
        "meta_mean_motion": 1.85519443,
        "meta_eccentricity": 0.16470313,
        "meta_inclination": 49.088,
        "meta_ra_of_asc_node": 281.4514,
        "meta_arg_of_pericenter": 171.9194,
        "meta_mean_anomaly": 191.1354,
        "meta_ephemeris_type": 0,
        "meta_classification_type": "U",
        "meta_norad_cat_id": 40128,
        "meta_element_set_no": 999,
        "meta_rev_at_epoch": 7468,
        "meta_bstar": 0,
        "meta_mean_motion_dot": -5.9e-07,
        "meta_mean_motion_ddot": 0,
        "tle_line1": "1 40128U 14050A   25337.22596895 -.00000059  00000+0  00000+0 0  9994",
        "tle_line2": "2 40128  49.0880 281.4514 1647031 171.9194 191.1354  1.85519443 74684"
      },
      "geometry": {
        "type": "Point",
        "coordinates": [
          85.00719495328292,
          17.91685846958678
        ]
      }
    },
    {
      "type": "Feature",
      "properties": {
        "norad_id": 40129,
        "name": "GSAT0202 (GALILEO 6)",
        "group": "gnss",
        "lat": -7.447532781158371,
        "lon": -86.14462361647598,
        "alt_km": 26209.92135055745,
        "timestamp": "2025-12-07T05:38:10.147172+00:00",
        "meta_object_name": "GSAT0202 (GALILEO 6)",
        "meta_object_id": "2014-050B",
        "meta_epoch": "2025-12-06T04:15:08.981856",
        "meta_mean_motion": 1.85520222,
        "meta_eccentricity": 0.16479377,
        "meta_inclination": 49.1003,
        "meta_ra_of_asc_node": 280.4147,
        "meta_arg_of_pericenter": 172.7832,
        "meta_mean_anomaly": 189.9608,
        "meta_ephemeris_type": 0,
        "meta_classification_type": "U",
        "meta_norad_cat_id": 40129,
        "meta_element_set_no": 999,
        "meta_rev_at_epoch": 7690,
        "meta_bstar": 0,
        "meta_mean_motion_dot": -5.4e-07,
        "meta_mean_motion_ddot": 0,
        "tle_line1": "1 40129U 14050B   25340.17718729 -.00000054  00000+0  00000+0 0  9990",
        "tle_line2": "2 40129  49.1003 280.4147 1647937 172.7832 189.9608  1.85520222 76908"
      },
      "geometry": {
        "type": "Point",
        "coordinates": [
          -86.14462361647598,
          -7.447532781158371
        ]
      }
    },
    {
      "type": "Feature",
      "properties": {
        "norad_id": 40269,
        "name": "IRNSS-1C",
        "group": "gnss",
        "lat": 2.881557127441044,
        "lon": -116.01832613929781,
        "alt_km": 35851.062404447184,
        "timestamp": "2025-12-07T05:38:10.147191+00:00",
        "meta_object_name": "IRNSS-1C",
        "meta_object_id": "2014-061A",
        "meta_epoch": "2025-12-06T08:55:24.329568",
        "meta_mean_motion": 1.00268749,
        "meta_eccentricity": 0.00178377,
        "meta_inclination": 6.0247,
        "meta_ra_of_asc_node": 92.7497,
        "meta_arg_of_pericenter": 2.5981,
        "meta_mean_anomaly": 196.859,
        "meta_ephemeris_type": 0,
        "meta_classification_type": "U",
        "meta_norad_cat_id": 40269,
        "meta_element_set_no": 999,
        "meta_rev_at_epoch": 4075,
        "meta_bstar": 0,
        "meta_mean_motion_dot": -1.56e-06,
        "meta_mean_motion_ddot": 0,
        "tle_line1": "1 40269U 14061A   25340.37180937 -.00000156  00000+0  00000+0 0  9996",
        "tle_line2": "2 40269   6.0247  92.7497 0017837   2.5981 196.8590  1.00268749 40752"
      },
      "geometry": {
        "type": "Point",
        "coordinates": [
          -116.01832613929781,
          2.881557127441044
        ]
      }
    },
    {
      "type": "Feature",
      "properties": {
        "norad_id": 40294,
        "name": "GPS BIIF-8  (PRN 03)",
        "group": "gnss",
        "lat": -7.545563544840789,
        "lon": -136.66067191373384,
        "alt_km": 20262.91559814358,
        "timestamp": "2025-12-07T05:38:10.147214+00:00",
        "meta_object_name": "GPS BIIF-8  (PRN 03)",
        "meta_object_id": "2014-068A",
        "meta_epoch": "2025-12-05T23:27:53.798400",
        "meta_mean_motion": 2.00564264,
        "meta_eccentricity": 0.00608121,
        "meta_inclination": 56.8528,
        "meta_ra_of_asc_node": 38.4077,
        "meta_arg_of_pericenter": 69.3337,
        "meta_mean_anomaly": 291.3749,
        "meta_ephemeris_type": 0,
        "meta_classification_type": "U",
        "meta_norad_cat_id": 40294,
        "meta_element_set_no": 999,
        "meta_rev_at_epoch": 8133,
        "meta_bstar": 0,
        "meta_mean_motion_dot": -6.8e-07,
        "meta_mean_motion_ddot": 0,
        "tle_line1": "1 40294U 14068A   25339.97770600 -.00000068  00000+0  00000+0 0  9999",
        "tle_line2": "2 40294  56.8528  38.4077 0060812  69.3337 291.3749  2.00564264 81331"
      },
      "geometry": {
        "type": "Point",
        "coordinates": [
          -136.66067191373384,
          -7.545563544840789
        ]
      }
    },
    {
      "type": "Feature",
      "properties": {
        "norad_id": 40315,
        "name": "COSMOS 2501 (702K)",
        "group": "gnss",
        "lat": -59.22486690393214,
        "lon": 73.49806048372855,
        "alt_km": 19102.350897531585,
        "timestamp": "2025-12-07T05:38:10.147235+00:00",
        "meta_object_name": "COSMOS 2501 (702K)",
        "meta_object_id": "2014-075A",
        "meta_epoch": "2025-12-04T02:08:01.213152",
        "meta_mean_motion": 2.13101298,
        "meta_eccentricity": 0.0020149,
        "meta_inclination": 63.6138,
        "meta_ra_of_asc_node": 197.1248,
        "meta_arg_of_pericenter": 204.6361,
        "meta_mean_anomaly": 155.363,
        "meta_ephemeris_type": 0,
        "meta_classification_type": "U",
        "meta_norad_cat_id": 40315,
        "meta_element_set_no": 999,
        "meta_rev_at_epoch": 8569,
        "meta_bstar": 0,
        "meta_mean_motion_dot": 1.03e-06,
        "meta_mean_motion_ddot": 0,
        "tle_line1": "1 40315U 14075A   25338.08890293  .00000103  00000+0  00000+0 0  9992",
        "tle_line2": "2 40315  63.6138 197.1248 0020149 204.6361 155.3630  2.13101298 85690"
      },
      "geometry": {
        "type": "Point",
        "coordinates": [
          73.49806048372855,
          -59.22486690393214
        ]
      }
    },
    {
      "type": "Feature",
      "properties": {
        "norad_id": 40534,
        "name": "GPS BIIF-9  (PRN 26)",
        "group": "gnss",
        "lat": 52.82458553551176,
        "lon": -48.516229197295345,
        "alt_km": 20020.28224420736,
        "timestamp": "2025-12-07T05:38:10.147249+00:00",
        "meta_object_name": "GPS BIIF-9  (PRN 26)",
        "meta_object_id": "2015-013A",
        "meta_epoch": "2025-12-06T14:33:06.415200",
        "meta_mean_motion": 2.0056283,
        "meta_eccentricity": 0.010678,
        "meta_inclination": 53.1987,
        "meta_ra_of_asc_node": 212.1443,
        "meta_arg_of_pericenter": 38.3324,
        "meta_mean_anomaly": 322.5165,
        "meta_ephemeris_type": 0,
        "meta_classification_type": "U",
        "meta_norad_cat_id": 40534,
        "meta_element_set_no": 999,
        "meta_rev_at_epoch": 7796,
        "meta_bstar": 0,
        "meta_mean_motion_dot": 4.8e-07,
        "meta_mean_motion_ddot": 0,
        "tle_line1": "1 40534U 15013A   25340.60632425  .00000048  00000+0  00000+0 0  9998",
        "tle_line2": "2 40534  53.1987 212.1443 0106780  38.3324 322.5165  2.00562830 77962"
      },
      "geometry": {
        "type": "Point",
        "coordinates": [
          -48.516229197295345,
          52.82458553551176
        ]
      }
    },
    {
      "type": "Feature",
      "properties": {
        "norad_id": 40544,
        "name": "GSAT0203 (GALILEO 7)",
        "group": "gnss",
        "lat": -55.17521190389862,
        "lon": -123.16341745696286,
        "alt_km": 23208.94305405675,
        "timestamp": "2025-12-07T05:38:10.147264+00:00",
        "meta_object_name": "GSAT0203 (GALILEO 7)",
        "meta_object_id": "2015-017A",
        "meta_epoch": "2025-12-05T01:16:54.709536",
        "meta_mean_motion": 1.70475832,
        "meta_eccentricity": 0.00065103,
        "meta_inclination": 56.8481,
        "meta_ra_of_asc_node": 346.8898,
        "meta_arg_of_pericenter": 269.6279,
        "meta_mean_anomaly": 90.3257,
        "meta_ephemeris_type": 0,
        "meta_classification_type": "U",
        "meta_norad_cat_id": 40544,
        "meta_element_set_no": 999,
        "meta_rev_at_epoch": 6589,
        "meta_bstar": 0,
        "meta_mean_motion_dot": -7.5e-07,
        "meta_mean_motion_ddot": 0,
        "tle_line1": "1 40544U 15017A   25339.05341099 -.00000075  00000+0  00000+0 0  9995",
        "tle_line2": "2 40544  56.8481 346.8898 0006510 269.6279  90.3257  1.70475832 65891"
      },
      "geometry": {
        "type": "Point",
        "coordinates": [
          -123.16341745696286,
          -55.17521190389862
        ]
      }
    }
  ]
}